start=new Date('2022-10-03T00:00:00.000Z').valueOf();
sats=[{"OBJECT_TYPE":"PAYLOAD","NORAD_CAT_ID":"52673","APOAPSIS":"541.115","RCS_SIZE":"LARGE","COUNTRY_CODE":"US","RA_OF_ASC_NODE":"23.4412","OBJECT_NAME":"STARLINK-3976","REF_FRAME":"TEME","SITE":"AFETR","OBJECT_ID":"2022-053T","TLE_LINE2":"2 52673  53.2199  23.4412 0002010  44.8403 315.2752 15.08846919 21735","PERIOD":"95.437","SEMIMAJOR_AXIS":"6917.859","MEAN_ELEMENT_THEORY":"SGP4","DECAY_DATE":null,"MEAN_MOTION_DDOT":"0.0000000000000","LAUNCH_DATE":"2022-05-18","TIME_SYSTEM":"UTC","TLE_LINE1":"1 52673U 22053T   22275.71145050  .00000017  00000-0  19172-4 0  9998","ARG_OF_PERICENTER":"44.8403","FILE":"3589751","EPOCH":"2022-10-02T17:04:29.323200","ELEMENT_SET_NO":"999","EPHEMERIS_TYPE":"0","BSTAR":"0.00001917200000","ECCENTRICITY":"0.00020100","MEAN_MOTION_DOT":"0.00000017","CLASSIFICATION_TYPE":"U","MEAN_MOTION":"15.08846919","INCLINATION":"53.2199","GP_ID":"214051681","PERIAPSIS":"538.334","REV_AT_EPOCH":"2173","MEAN_ANOMALY":"315.2752","CENTER_NAME":"EARTH"},{"TIME_SYSTEM":"UTC","LAUNCH_DATE":"2022-05-18","MEAN_MOTION_DDOT":"0.0000000000000","DECAY_DATE":null,"SEMIMAJOR_AXIS":"6917.916","MEAN_ELEMENT_THEORY":"SGP4","PERIOD":"95.438","TLE_LINE2":"2 52674  53.2188  23.0947 0001926  41.4136 318.7001 15.08828453 21754","OBJECT_ID":"2022-053U","SITE":"AFETR","REF_FRAME":"TEME","RA_OF_ASC_NODE":"23.0947","OBJECT_NAME":"STARLINK-3936","COUNTRY_CODE":"US","RCS_SIZE":"LARGE","APOAPSIS":"541.113","NORAD_CAT_ID":"52674","OBJECT_TYPE":"PAYLOAD","CENTER_NAME":"EARTH","MEAN_ANOMALY":"318.7001","REV_AT_EPOCH":"2175","PERIAPSIS":"538.448","GP_ID":"214051785","MEAN_MOTION":"15.08828453","INCLINATION":"53.2188","CLASSIFICATION_TYPE":"U","MEAN_MOTION_DOT":"0.00022061","ECCENTRICITY":"0.00019260","BSTAR":"0.00140030000000","EPHEMERIS_TYPE":"0","ELEMENT_SET_NO":"999","EPOCH":"2022-10-02T19:01:05.754144","FILE":"3589751","ARG_OF_PERICENTER":"41.4136","TLE_LINE1":"1 52674U 22053U   22275.79242771  .00022061  00000-0  14003-2 0  9994"},{"TIME_SYSTEM":"UTC","LAUNCH_DATE":"2022-05-18","DECAY_DATE":null,"MEAN_MOTION_DDOT":"0.0000000000000","SEMIMAJOR_AXIS":"6917.913","MEAN_ELEMENT_THEORY":"SGP4","PERIOD":"95.438","TLE_LINE2":"2 52675  53.2177  13.4555 0001843  43.5959 316.5179 15.08829490 21861","OBJECT_ID":"2022-053V","REF_FRAME":"TEME","SITE":"AFETR","COUNTRY_CODE":"US","RA_OF_ASC_NODE":"13.4555","OBJECT_NAME":"STARLINK-3934","APOAPSIS":"541.052","RCS_SIZE":"LARGE","NORAD_CAT_ID":"52675","OBJECT_TYPE":"PAYLOAD","MEAN_ANOMALY":"316.5179","CENTER_NAME":"EARTH","PERIAPSIS":"538.503","REV_AT_EPOCH":"2186","GP_ID":"214052523","MEAN_MOTION":"15.08829490","INCLINATION":"53.2177","CLASSIFICATION_TYPE":"U","MEAN_MOTION_DOT":"-0.00002815","ECCENTRICITY":"0.00018430","BSTAR":"-0.00015888000000","EPHEMERIS_TYPE":"0","ELEMENT_SET_NO":"999","EPOCH":"2022-10-02T17:00:32.606208","FILE":"3589751","TLE_LINE1":"1 52675U 22053V   22275.70871072 -.00002815  00000-0 -15888-3 0  9998","ARG_OF_PERICENTER":"43.5959"},{"PERIAPSIS":"538.444","REV_AT_EPOCH":"2173","MEAN_ANOMALY":"311.6951","CENTER_NAME":"EARTH","GP_ID":"214051948","ECCENTRICITY":"0.00019090","CLASSIFICATION_TYPE":"U","MEAN_MOTION_DOT":"-0.00000936","INCLINATION":"53.2214","MEAN_MOTION":"15.08833603","ARG_OF_PERICENTER":"48.4205","TLE_LINE1":"1 52676U 22053W   22275.71514491 -.00000936  00000-0 -40741-4 0  9998","FILE":"3589751","ELEMENT_SET_NO":"999","EPHEMERIS_TYPE":"0","EPOCH":"2022-10-02T17:09:48.520224","BSTAR":"-0.00004074100000","SEMIMAJOR_AXIS":"6917.900","MEAN_ELEMENT_THEORY":"SGP4","DECAY_DATE":null,"MEAN_MOTION_DDOT":"0.0000000000000","LAUNCH_DATE":"2022-05-18","TIME_SYSTEM":"UTC","REF_FRAME":"TEME","SITE":"AFETR","OBJECT_ID":"2022-053W","TLE_LINE2":"2 52676  53.2214  23.4313 0001909  48.4205 311.6951 15.08833603 21739","PERIOD":"95.438","APOAPSIS":"541.086","RCS_SIZE":"LARGE","COUNTRY_CODE":"US","RA_OF_ASC_NODE":"23.4313","OBJECT_NAME":"STARLINK-4006","OBJECT_TYPE":"PAYLOAD","NORAD_CAT_ID":"52676"},{"RCS_SIZE":"MEDIUM","APOAPSIS":"541.187","RA_OF_ASC_NODE":"13.1918","OBJECT_NAME":"STARLINK-4028","COUNTRY_CODE":"US","NORAD_CAT_ID":"52677","OBJECT_TYPE":"PAYLOAD","LAUNCH_DATE":"2022-05-18","TIME_SYSTEM":"UTC","MEAN_ELEMENT_THEORY":"SGP4","SEMIMAJOR_AXIS":"6917.909","MEAN_MOTION_DDOT":"0.0000000000000","DECAY_DATE":null,"TLE_LINE2":"2 52677  53.2174  13.1918 0002042  47.0864 313.0300 15.08830563 21856","PERIOD":"95.438","SITE":"AFETR","REF_FRAME":"TEME","OBJECT_ID":"2022-053X","CLASSIFICATION_TYPE":"U","MEAN_MOTION_DOT":"0.00006352","INCLINATION":"53.2174","MEAN_MOTION":"15.08830563","ECCENTRICITY":"0.00020420","ELEMENT_SET_NO":"999","EPHEMERIS_TYPE":"0","EPOCH":"2022-10-02T18:25:19.106400","BSTAR":"0.00041693000000","ARG_OF_PERICENTER":"47.0864","TLE_LINE1":"1 52677U 22053X   22275.76758225  .00006352  00000-0  41693-3 0  9991","FILE":"3589751","CENTER_NAME":"EARTH","MEAN_ANOMALY":"313.0300","REV_AT_EPOCH":"2185","PERIAPSIS":"538.362","GP_ID":"214052098"},{"OBJECT_ID":"2022-053Y","REF_FRAME":"TEME","SITE":"AFETR","PERIOD":"95.438","TLE_LINE2":"2 52678  53.2189  13.4512 0001966  39.6205 320.4930 15.08830838 21863","DECAY_DATE":null,"MEAN_MOTION_DDOT":"0.0000000000000","SEMIMAJOR_AXIS":"6917.908","MEAN_ELEMENT_THEORY":"SGP4","TIME_SYSTEM":"UTC","LAUNCH_DATE":"2022-05-18","OBJECT_TYPE":"PAYLOAD","NORAD_CAT_ID":"52678","COUNTRY_CODE":"US","RA_OF_ASC_NODE":"13.4512","OBJECT_NAME":"STARLINK-4074","APOAPSIS":"541.133","RCS_SIZE":"LARGE","GP_ID":"214051369","PERIAPSIS":"538.413","REV_AT_EPOCH":"2186","MEAN_ANOMALY":"320.4930","CENTER_NAME":"EARTH","FILE":"3589751","ARG_OF_PERICENTER":"39.6205","TLE_LINE1":"1 52678U 22053Y   22275.70966359 -.00002087  00000-0 -11311-3 0  9992","BSTAR":"-0.00011311000000","EPOCH":"2022-10-02T17:01:54.934176","ELEMENT_SET_NO":"999","EPHEMERIS_TYPE":"0","ECCENTRICITY":"0.00019660","MEAN_MOTION":"15.08830838","INCLINATION":"53.2189","CLASSIFICATION_TYPE":"U","MEAN_MOTION_DOT":"-0.00002087"},{"OBJECT_NAME":"STARLINK-4031","RA_OF_ASC_NODE":"13.5393","COUNTRY_CODE":"US","RCS_SIZE":"LARGE","APOAPSIS":"540.960","NORAD_CAT_ID":"52679","OBJECT_TYPE":"PAYLOAD","TIME_SYSTEM":"UTC","LAUNCH_DATE":"2022-05-18","MEAN_MOTION_DDOT":"0.0000000000000","DECAY_DATE":null,"MEAN_ELEMENT_THEORY":"SGP4","SEMIMAJOR_AXIS":"6917.858","PERIOD":"95.437","TLE_LINE2":"2 52679  53.2182  13.5393 0001788  51.3602 308.7550 15.08847311 21826","OBJECT_ID":"2022-053Z","SITE":"AFETR","REF_FRAME":"TEME","INCLINATION":"53.2182","MEAN_MOTION":"15.08847311","MEAN_MOTION_DOT":"0.00001010","CLASSIFICATION_TYPE":"U","ECCENTRICITY":"0.00017880","BSTAR":"0.00008152300000","ELEMENT_SET_NO":"999","EPOCH":"2022-10-02T16:34:00.768288","EPHEMERIS_TYPE":"0","FILE":"3589751","TLE_LINE1":"1 52679U 22053Z   22275.69028667  .00001010  00000-0  81523-4 0  9998","ARG_OF_PERICENTER":"51.3602","CENTER_NAME":"EARTH","MEAN_ANOMALY":"308.7550","REV_AT_EPOCH":"2182","PERIAPSIS":"538.486","GP_ID":"214052267"},{"PERIAPSIS":"538.352","REV_AT_EPOCH":"2183","MEAN_ANOMALY":"310.1320","CENTER_NAME":"EARTH","GP_ID":"214051533","ECCENTRICITY":"0.00019820","MEAN_MOTION":"15.08847335","INCLINATION":"53.2179","MEAN_MOTION_DOT":"-0.00000989","CLASSIFICATION_TYPE":"U","FILE":"3589751","TLE_LINE1":"1 52680U 22053AA  22275.63877510 -.00000989  00000-0 -44004-4 0  9992","ARG_OF_PERICENTER":"49.9846","BSTAR":"-0.00004400400000","ELEMENT_SET_NO":"999","EPHEMERIS_TYPE":"0","EPOCH":"2022-10-02T15:19:50.168640","DECAY_DATE":null,"MEAN_MOTION_DDOT":"0.0000000000000","SEMIMAJOR_AXIS":"6917.858","MEAN_ELEMENT_THEORY":"SGP4","TIME_SYSTEM":"UTC","LAUNCH_DATE":"2022-05-18","OBJECT_ID":"2022-053AA","REF_FRAME":"TEME","SITE":"AFETR","PERIOD":"95.437","TLE_LINE2":"2 52680  53.2179  13.7709 0001982  49.9846 310.1320 15.08847335 21835","COUNTRY_CODE":"US","OBJECT_NAME":"STARLINK-3774","RA_OF_ASC_NODE":"13.7709","APOAPSIS":"541.094","RCS_SIZE":"LARGE","OBJECT_TYPE":"PAYLOAD","NORAD_CAT_ID":"52680"},{"COUNTRY_CODE":"US","OBJECT_NAME":"STARLINK-4068","RA_OF_ASC_NODE":"14.1434","APOAPSIS":"541.188","RCS_SIZE":"LARGE","OBJECT_TYPE":"PAYLOAD","NORAD_CAT_ID":"52681","DECAY_DATE":null,"MEAN_MOTION_DDOT":"0.0000000000000","MEAN_ELEMENT_THEORY":"SGP4","SEMIMAJOR_AXIS":"6917.890","TIME_SYSTEM":"UTC","LAUNCH_DATE":"2022-05-18","OBJECT_ID":"2022-053AB","REF_FRAME":"TEME","SITE":"AFETR","PERIOD":"95.438","TLE_LINE2":"2 52681  53.2167  14.1434 0002072  42.8211 317.2942 15.08836885 21805","ECCENTRICITY":"0.00020720","INCLINATION":"53.2167","MEAN_MOTION":"15.08836885","MEAN_MOTION_DOT":"-0.00001390","CLASSIFICATION_TYPE":"U","FILE":"3589474","TLE_LINE1":"1 52681U 22053AB  22275.55414121 -.00001390  00000-0 -69248-4 0  9993","ARG_OF_PERICENTER":"42.8211","BSTAR":"-0.00006924800000","EPOCH":"2022-10-02T13:17:57.800544","ELEMENT_SET_NO":"999","EPHEMERIS_TYPE":"0","PERIAPSIS":"538.322","REV_AT_EPOCH":"2180","MEAN_ANOMALY":"317.2942","CENTER_NAME":"EARTH","GP_ID":"214019642"},{"GP_ID":"214051786","MEAN_ANOMALY":"326.9351","CENTER_NAME":"EARTH","PERIAPSIS":"538.205","REV_AT_EPOCH":"2184","BSTAR":"0.00171100000000","EPHEMERIS_TYPE":"0","ELEMENT_SET_NO":"999","EPOCH":"2022-10-02T16:44:38.642208","FILE":"3589751","TLE_LINE1":"1 52682U 22053AC  22275.69766947  .00027038  00000-0  17110-2 0  9999","ARG_OF_PERICENTER":"33.1784","INCLINATION":"53.2171","MEAN_MOTION":"15.08826673","MEAN_MOTION_DOT":"0.00027038","CLASSIFICATION_TYPE":"U","ECCENTRICITY":"0.00022850","PERIOD":"95.438","TLE_LINE2":"2 52682  53.2171  13.5014 0002285  33.1784 326.9351 15.08826673 21841","OBJECT_ID":"2022-053AC","REF_FRAME":"TEME","SITE":"AFETR","TIME_SYSTEM":"UTC","LAUNCH_DATE":"2022-05-18","DECAY_DATE":null,"MEAN_MOTION_DDOT":"0.0000000000000","MEAN_ELEMENT_THEORY":"SGP4","SEMIMAJOR_AXIS":"6917.921","NORAD_CAT_ID":"52682","OBJECT_TYPE":"PAYLOAD","COUNTRY_CODE":"US","OBJECT_NAME":"STARLINK-4017","RA_OF_ASC_NODE":"13.5014","APOAPSIS":"541.367","RCS_SIZE":"LARGE"}];
